ISS (ZARYA)             
1 25544U 98067A   25335.89873625  .00009722  00000+0  18290-3 0  9998
2 25544  51.6307 196.1486 0003628 192.4733 167.6166 15.49234272541177
CSS (TIANHE)            
1 48274U 21035A   25336.01547029  .00024034  00000+0  30849-3 0  9992
2 48274  41.4674  81.7809 0010327 310.2808  49.7127 15.58503617262350
ISS (NAUKA)             
1 49044U 21066A   25335.57620886  .00008648  00000+0  16366-3 0  9996
2 49044  51.6309 197.7449 0003647 190.9481 169.1428 15.49226524230444
FREGAT DEB              
1 49271U 11037PF  25335.88353572  .00005162  00000+0  11543-1 0  9992
2 49271  51.6217 231.5315 0868920 200.2682 156.1576 12.34329118200591
CSS (WENTIAN)           
1 53239U 22085A   25335.63098376  .00019534  00000+0  25188-3 0  9997
2 53239  41.4671  84.1132 0010396 308.0304  51.9595 15.58480820173841
CSS (MENGTIAN)          
1 54216U 22143A   25335.63098376  .00019534  00000+0  25188-3 0  9998
2 54216  41.4671  84.1132 0010396 308.0304  51.9595 15.58480820158648
SOYUZ-MS 27             
1 63520U 25072A   25335.57620886  .00008648  00000+0  16366-3 0  9992
2 63520  51.6309 197.7449 0003647 190.9481 169.1428 15.49226524 20200
SHENZHOU-20 (SZ-20)     
1 63632U 25082A   25335.63098376  .00019534  00000+0  25188-3 0  9995
2 63632  41.4671  84.1132 0010396 308.0304  51.9595 15.58480820255301
PROGRESS-MS 31          
1 64751U 25146A   25335.57620886  .00008648  00000+0  16366-3 0  9991
2 64751  51.6309 197.7449 0003647 190.9481 169.1428 15.49226524  6751
TIANZHOU-9              
1 64786U 25149A   25335.63098376  .00019534  00000+0  25188-3 0  9990
2 64786  41.4671  84.1132 0010396 308.0304  51.9595 15.58480820255302
CREW DRAGON 11          
1 65077U 25166A   25335.57620886  .00008648  00000+0  16366-3 0  9995
2 65077  51.6309 197.7449 0003647 190.9481 169.1428 15.49226524  2142
DRAGON CRS-33           
1 65304U 25186A   25335.57620886  .00008648  00000+0  16366-3 0  9990
2 65304  51.6309 197.7449 0003647 190.9481 169.1428 15.49226524   110
