CCSDS_OMM_VERS = 2.0
CREATION_DATE  = 
ORIGINATOR     = 

OBJECT_NAME    = ISS (ZARYA)
OBJECT_ID      = 1998-067A
CENTER_NAME    = EARTH
REF_FRAME      = TEME
TIME_SYSTEM    = UTC
MEAN_ELEMENT_THEORY = SGP/SGP4

EPOCH          = 2025-12-01T21:34:10.812000
MEAN_MOTION    = 15.49234272
ECCENTRICITY   = .0003628
INCLINATION    = 51.6307
RA_OF_ASC_NODE = 196.1486
ARG_OF_PERICENTER = 192.4733
MEAN_ANOMALY   = 167.6166

EPHEMERIS_TYPE = 0
CLASSIFICATION_TYPE = U
NORAD_CAT_ID   = 25544
ELEMENT_SET_NO = 999
REV_AT_EPOCH   = 54117
BSTAR          = .1829E-3
MEAN_MOTION_DOT = .9722E-4
MEAN_MOTION_DDOT = 0

CCSDS_OMM_VERS = 2.0
CREATION_DATE  = 
ORIGINATOR     = 

OBJECT_NAME    = CSS (TIANHE)
OBJECT_ID      = 2021-035A
CENTER_NAME    = EARTH
REF_FRAME      = TEME
TIME_SYSTEM    = UTC
MEAN_ELEMENT_THEORY = SGP/SGP4

EPOCH          = 2025-12-02T00:22:16.633056
MEAN_MOTION    = 15.58503617
ECCENTRICITY   = .0010327
INCLINATION    = 41.4674
RA_OF_ASC_NODE = 81.7809
ARG_OF_PERICENTER = 310.2808
MEAN_ANOMALY   = 49.7127

EPHEMERIS_TYPE = 0
CLASSIFICATION_TYPE = U
NORAD_CAT_ID   = 48274
ELEMENT_SET_NO = 999
REV_AT_EPOCH   = 26235
BSTAR          = .30849E-3
MEAN_MOTION_DOT = .24034E-3
MEAN_MOTION_DDOT = 0

CCSDS_OMM_VERS = 2.0
CREATION_DATE  = 
ORIGINATOR     = 

OBJECT_NAME    = ISS (NAUKA)
OBJECT_ID      = 2021-066A
CENTER_NAME    = EARTH
REF_FRAME      = TEME
TIME_SYSTEM    = UTC
MEAN_ELEMENT_THEORY = SGP/SGP4

EPOCH          = 2025-12-01T13:49:44.445504
MEAN_MOTION    = 15.49226524
ECCENTRICITY   = .00036473
INCLINATION    = 51.6309
RA_OF_ASC_NODE = 197.7449
ARG_OF_PERICENTER = 190.9481
MEAN_ANOMALY   = 169.1428

EPHEMERIS_TYPE = 0
CLASSIFICATION_TYPE = U
NORAD_CAT_ID   = 49044
ELEMENT_SET_NO = 999
REV_AT_EPOCH   = 23044
BSTAR          = .16365535E-3
MEAN_MOTION_DOT = .8648E-4
MEAN_MOTION_DDOT = 0

CCSDS_OMM_VERS = 2.0
CREATION_DATE  = 
ORIGINATOR     = 

OBJECT_NAME    = FREGAT DEB
OBJECT_ID      = 2011-037PF
CENTER_NAME    = EARTH
REF_FRAME      = TEME
TIME_SYSTEM    = UTC
MEAN_ELEMENT_THEORY = SGP/SGP4

EPOCH          = 2025-12-01T21:12:17.486208
MEAN_MOTION    = 12.34329118
ECCENTRICITY   = .086892
INCLINATION    = 51.6217
RA_OF_ASC_NODE = 231.5315
ARG_OF_PERICENTER = 200.2682
MEAN_ANOMALY   = 156.1576

EPHEMERIS_TYPE = 0
CLASSIFICATION_TYPE = U
NORAD_CAT_ID   = 49271
ELEMENT_SET_NO = 999
REV_AT_EPOCH   = 20059
BSTAR          = .11543E-1
MEAN_MOTION_DOT = .5162E-4
MEAN_MOTION_DDOT = 0

CCSDS_OMM_VERS = 2.0
CREATION_DATE  = 
ORIGINATOR     = 

OBJECT_NAME    = CSS (WENTIAN)
OBJECT_ID      = 2022-085A
CENTER_NAME    = EARTH
REF_FRAME      = TEME
TIME_SYSTEM    = UTC
MEAN_ELEMENT_THEORY = SGP/SGP4

EPOCH          = 2025-12-01T15:08:36.996864
MEAN_MOTION    = 15.58480820
ECCENTRICITY   = .00103969
INCLINATION    = 41.4671
RA_OF_ASC_NODE = 84.1132
ARG_OF_PERICENTER = 308.0304
MEAN_ANOMALY   = 51.9595

EPHEMERIS_TYPE = 0
CLASSIFICATION_TYPE = U
NORAD_CAT_ID   = 53239
ELEMENT_SET_NO = 999
REV_AT_EPOCH   = 17384
BSTAR          = .25188161E-3
MEAN_MOTION_DOT = .19534E-3
MEAN_MOTION_DDOT = 0

CCSDS_OMM_VERS = 2.0
CREATION_DATE  = 
ORIGINATOR     = 

OBJECT_NAME    = CSS (MENGTIAN)
OBJECT_ID      = 2022-143A
CENTER_NAME    = EARTH
REF_FRAME      = TEME
TIME_SYSTEM    = UTC
MEAN_ELEMENT_THEORY = SGP/SGP4

EPOCH          = 2025-12-01T15:08:36.996864
MEAN_MOTION    = 15.58480820
ECCENTRICITY   = .00103969
INCLINATION    = 41.4671
RA_OF_ASC_NODE = 84.1132
ARG_OF_PERICENTER = 308.0304
MEAN_ANOMALY   = 51.9595

EPHEMERIS_TYPE = 0
CLASSIFICATION_TYPE = U
NORAD_CAT_ID   = 54216
ELEMENT_SET_NO = 999
REV_AT_EPOCH   = 15864
BSTAR          = .25188161E-3
MEAN_MOTION_DOT = .19534E-3
MEAN_MOTION_DDOT = 0

CCSDS_OMM_VERS = 2.0
CREATION_DATE  = 
ORIGINATOR     = 

OBJECT_NAME    = SOYUZ-MS 27
OBJECT_ID      = 2025-072A
CENTER_NAME    = EARTH
REF_FRAME      = TEME
TIME_SYSTEM    = UTC
MEAN_ELEMENT_THEORY = SGP/SGP4

EPOCH          = 2025-12-01T13:49:44.445504
MEAN_MOTION    = 15.49226524
ECCENTRICITY   = .00036473
INCLINATION    = 51.6309
RA_OF_ASC_NODE = 197.7449
ARG_OF_PERICENTER = 190.9481
MEAN_ANOMALY   = 169.1428

EPHEMERIS_TYPE = 0
CLASSIFICATION_TYPE = U
NORAD_CAT_ID   = 63520
ELEMENT_SET_NO = 999
REV_AT_EPOCH   = 2020
BSTAR          = .16365535E-3
MEAN_MOTION_DOT = .8648E-4
MEAN_MOTION_DDOT = 0

CCSDS_OMM_VERS = 2.0
CREATION_DATE  = 
ORIGINATOR     = 

OBJECT_NAME    = SHENZHOU-20 (SZ-20)
OBJECT_ID      = 2025-082A
CENTER_NAME    = EARTH
REF_FRAME      = TEME
TIME_SYSTEM    = UTC
MEAN_ELEMENT_THEORY = SGP/SGP4

EPOCH          = 2025-12-01T15:08:36.996864
MEAN_MOTION    = 15.58480820
ECCENTRICITY   = .00103969
INCLINATION    = 41.4671
RA_OF_ASC_NODE = 84.1132
ARG_OF_PERICENTER = 308.0304
MEAN_ANOMALY   = 51.9595

EPHEMERIS_TYPE = 0
CLASSIFICATION_TYPE = U
NORAD_CAT_ID   = 63632
ELEMENT_SET_NO = 999
REV_AT_EPOCH   = 25530
BSTAR          = .25188161E-3
MEAN_MOTION_DOT = .19534E-3
MEAN_MOTION_DDOT = 0

CCSDS_OMM_VERS = 2.0
CREATION_DATE  = 
ORIGINATOR     = 

OBJECT_NAME    = PROGRESS-MS 31
OBJECT_ID      = 2025-146A
CENTER_NAME    = EARTH
REF_FRAME      = TEME
TIME_SYSTEM    = UTC
MEAN_ELEMENT_THEORY = SGP/SGP4

EPOCH          = 2025-12-01T13:49:44.445504
MEAN_MOTION    = 15.49226524
ECCENTRICITY   = .00036473
INCLINATION    = 51.6309
RA_OF_ASC_NODE = 197.7449
ARG_OF_PERICENTER = 190.9481
MEAN_ANOMALY   = 169.1428

EPHEMERIS_TYPE = 0
CLASSIFICATION_TYPE = U
NORAD_CAT_ID   = 64751
ELEMENT_SET_NO = 999
REV_AT_EPOCH   = 675
BSTAR          = .16365535E-3
MEAN_MOTION_DOT = .8648E-4
MEAN_MOTION_DDOT = 0

CCSDS_OMM_VERS = 2.0
CREATION_DATE  = 
ORIGINATOR     = 

OBJECT_NAME    = TIANZHOU-9
OBJECT_ID      = 2025-149A
CENTER_NAME    = EARTH
REF_FRAME      = TEME
TIME_SYSTEM    = UTC
MEAN_ELEMENT_THEORY = SGP/SGP4

EPOCH          = 2025-12-01T15:08:36.996864
MEAN_MOTION    = 15.58480820
ECCENTRICITY   = .00103969
INCLINATION    = 41.4671
RA_OF_ASC_NODE = 84.1132
ARG_OF_PERICENTER = 308.0304
MEAN_ANOMALY   = 51.9595

EPHEMERIS_TYPE = 0
CLASSIFICATION_TYPE = U
NORAD_CAT_ID   = 64786
ELEMENT_SET_NO = 999
REV_AT_EPOCH   = 25530
BSTAR          = .25188161E-3
MEAN_MOTION_DOT = .19534E-3
MEAN_MOTION_DDOT = 0

CCSDS_OMM_VERS = 2.0
CREATION_DATE  = 
ORIGINATOR     = 

OBJECT_NAME    = CREW DRAGON 11
OBJECT_ID      = 2025-166A
CENTER_NAME    = EARTH
REF_FRAME      = TEME
TIME_SYSTEM    = UTC
MEAN_ELEMENT_THEORY = SGP/SGP4

EPOCH          = 2025-12-01T13:49:44.445504
MEAN_MOTION    = 15.49226524
ECCENTRICITY   = .00036473
INCLINATION    = 51.6309
RA_OF_ASC_NODE = 197.7449
ARG_OF_PERICENTER = 190.9481
MEAN_ANOMALY   = 169.1428

EPHEMERIS_TYPE = 0
CLASSIFICATION_TYPE = U
NORAD_CAT_ID   = 65077
ELEMENT_SET_NO = 999
REV_AT_EPOCH   = 214
BSTAR          = .16365535E-3
MEAN_MOTION_DOT = .8648E-4
MEAN_MOTION_DDOT = 0

CCSDS_OMM_VERS = 2.0
CREATION_DATE  = 
ORIGINATOR     = 

OBJECT_NAME    = DRAGON CRS-33
OBJECT_ID      = 2025-186A
CENTER_NAME    = EARTH
REF_FRAME      = TEME
TIME_SYSTEM    = UTC
MEAN_ELEMENT_THEORY = SGP/SGP4

EPOCH          = 2025-12-01T13:49:44.445504
MEAN_MOTION    = 15.49226524
ECCENTRICITY   = .00036473
INCLINATION    = 51.6309
RA_OF_ASC_NODE = 197.7449
ARG_OF_PERICENTER = 190.9481
MEAN_ANOMALY   = 169.1428

EPHEMERIS_TYPE = 0
CLASSIFICATION_TYPE = U
NORAD_CAT_ID   = 65304
ELEMENT_SET_NO = 999
REV_AT_EPOCH   = 11
BSTAR          = .16365535E-3
MEAN_MOTION_DOT = .8648E-4
MEAN_MOTION_DDOT = 0

